NORAD_CAT_ID,OBJECT_NAME,OBJECT_TYPE,EPOCH,MEAN_MOTION,ECCENTRICITY,INCLINATION,RA_OF_ASC_NODE,ARG_OF_PERICENTER,MEAN_ANOMALY,BSTAR,MEAN_MOTION_DOT,MEAN_MOTION_DDOT,TLE_LINE0,TLE_LINE1,TLE_LINE2,SEMIMAJOR_AXIS,PERIOD,APOGEE,PERIGEE,DECAYED
53173.0,STARLINK-4300,PAYLOAD,2023-07-07 02:06:11,15.08839746,8.28e-05,53.2161,203.2491,91.4672,268.6415,8.4542e-05,1.058e-05,0.0,0 STARLINK-4300,1 53173U 22083AT  23188.08762831  .00001058  00000-0  84542-4 0  9992,2 53173  53.2161 203.2491 0000828  91.4672 268.6415 15.08839746 54908,6917.881,95.438,540.319,539.173,0.0
53173.0,STARLINK-4300,PAYLOAD,2023-07-08 08:18:30,15.08842191,8.4e-05,53.2159,197.5987,88.662,271.4469,0.00010308,1.353e-05,0.0,0 STARLINK-4300,1 53173U 22083AT  23189.34618761  .00001353  00000-0  10308-3 0  9990,2 53173  53.2159 197.5987 0000840  88.6620 271.4469 15.08842191 55095,6917.874,95.437,540.32,539.158,0.0
53173.0,STARLINK-4300,PAYLOAD,2023-07-09 09:44:40,15.08842192,8.84e-05,53.2158,192.8405,87.1687,272.9406,5.5484e-05,5.95e-06,0.0,0 STARLINK-4300,1 53173U 22083AT  23190.40602849  .00000595  00000-0  55484-4 0  9991,2 53173  53.2158 192.8405 0000884  87.1687 272.9406 15.08842192 55258,6917.874,95.437,540.35,539.127,0.0
53173.0,STARLINK-4300,PAYLOAD,2023-07-10 11:10:50,15.08842144,9e-05,53.2158,188.0825,85.4053,274.7042,4.8625e-05,4.86e-06,0.0,0 STARLINK-4300,1 53173U 22083AT  23191.46586753  .00000486  00000-0  48625-4 0  9991,2 53173  53.2158 188.0825 0000900  85.4053 274.7042 15.08842144 55419,6917.874,95.437,540.361,539.116,0.0
53173.0,STARLINK-4300,PAYLOAD,2023-07-11 23:44:43,15.08837107,9.44e-05,53.216,181.2432,83.7415,276.3685,2.1071e-05,4.8e-07,0.0,0 STARLINK-4300,1 53173U 22083AT  23192.98939272  .00000048  00000-0  21071-4 0  9997,2 53173  53.2160 181.2432 0000944  83.7415 276.3685 15.08837107 55641,6917.889,95.438,540.407,539.101,0.0
53173.0,STARLINK-4300,PAYLOAD,2023-07-13 09:07:49,15.08840604,0.0001009,53.2164,174.9989,82.7997,277.311,6.5335e-05,7.52e-06,0.0,0 STARLINK-4300,1 53173U 22083AT  23194.38043175  .00000752  00000-0  65335-4 0  9994,2 53173  53.2164 174.9989 0001009  82.7997 277.3110 15.08840604 55851,6917.879,95.438,540.442,539.046,0.0
53173.0,STARLINK-4300,PAYLOAD,2023-07-14 15:20:09,15.08836632,0.0001082,53.217,169.3496,87.9981,272.1135,5.3671e-05,5.66e-06,0.0,0 STARLINK-4300,1 53173U 22083AT  23195.63899790  .00000566  00000-0  53671-4 0  9998,2 53173  53.2170 169.3496 0001082  87.9981 272.1135 15.08836632 56048,6917.891,95.438,540.504,539.007,0.0
53173.0,STARLINK-4300,PAYLOAD,2023-07-15 05:38:37,15.08844399,0.0001129,53.2171,166.6745,95.9974,264.1147,9.2696e-05,1.188e-05,0.0,0 STARLINK-4300,1 53173U 22083AT  23196.23515217  .00001188  00000-0  92696-4 0  9995,2 53173  53.2171 166.6745 0001129  95.9974 264.1147 15.08844399 56132,6917.867,95.437,540.513,538.951,0.0
53173.0,STARLINK-4300,PAYLOAD,2023-07-15 15:10:56,15.08841628,0.0001062,53.216,164.885,75.538,284.573,-2.5021e-05,-6.86e-06,0.0,0 STARLINK-4300,1 53173U 22083AT  23196.63259689 -.00000686  00000-0 -25021-4 0  9999,2 53173  53.2160 164.8850 0001062  75.5380 284.5730 15.08841628 56190,6917.875,95.437,540.475,539.006,0.0
53173.0,STARLINK-4300,PAYLOAD,2023-07-16 03:54:02,15.08833014,0.0001021,53.2151,162.5072,90.7283,269.3826,-6.3589e-06,-3.89e-06,0.0,0 STARLINK-4300,1 53173U 22083AT  23197.16252432 -.00000389  00000-0 -63589-5 0  9999,2 53173  53.2151 162.5072 0001021  90.7283 269.3826 15.08833014 56273,6917.902,95.438,540.473,539.06,0.0
53173.0,STARLINK-4300,PAYLOAD,2023-07-16 15:01:43,15.08839209,0.000112,53.2165,160.4279,87.3462,272.7659,3.2345e-05,2.27e-06,0.0,0 STARLINK-4300,1 53173U 22083AT  23197.62620092  .00000227  00000-0  32345-4 0  9995,2 53173  53.2165 160.4279 0001120  87.3462 272.7659 15.08839209 56347,6917.883,95.438,540.523,538.973,0.0
53173.0,STARLINK-4300,PAYLOAD,2023-07-17 14:52:30,15.08846136,0.0001135,53.2166,155.9678,85.203,274.9092,0.00011889,1.605e-05,0.0,0 STARLINK-4300,1 53173U 22083AT  23198.61979263  .00001605  00000-0  11889-3 0  9992,2 53173  53.2166 155.9678 0001135  85.2030 274.9092 15.08846136 56492,6917.862,95.437,540.512,538.941,0.0
53173.0,STARLINK-4300,PAYLOAD,2023-07-19 01:50:59,15.08837553,0.0001217,53.2167,149.4263,75.5582,284.5546,-2.7851e-05,-7.31e-06,0.0,0 STARLINK-4300,1 53173U 22083AT  23200.07708218 -.00000731  00000-0 -27851-4 0  9994,2 53173  53.2167 149.4263 0001217  75.5582 284.5546 15.08837553 56715,6917.888,95.438,540.595,538.911,0.0
53173.0,STARLINK-4300,PAYLOAD,2023-07-20 23:57:11,15.0883589,0.0001336,53.2178,140.8066,81.0365,279.0778,0.00015364,2.158e-05,0.0,0 STARLINK-4300,1 53173U 22083AT  23201.99804485  .00002158  00000-0  15364-3 0  9997,2 53173  53.2178 140.8066 0001336  81.0365 279.0778 15.08835890 57007,6917.893,95.438,540.682,538.834,0.0
53173.0,STARLINK-4300,PAYLOAD,2023-07-23 04:24:54,15.08848992,0.0001213,53.2169,130.9903,95.1749,264.9382,0.0001202,1.626e-05,0.0,0 STARLINK-4300,1 53173U 22083AT  23204.18396145  .00001626  00000-0  12020-3 0  9995,2 53173  53.2169 130.9903 0001213  95.1749 264.9382 15.08848992 56698,6917.853,95.437,540.557,538.879,0.0
53173.0,STARLINK-4300,PAYLOAD,2023-07-24 23:20:19,15.08838707,0.0001192,53.2172,122.9621,85.098,275.0148,2.9167e-05,1.76e-06,0.0,0 STARLINK-4300,1 53173U 22083AT  23205.97245215  .00000176  00000-0  29167-4 0  9994,2 53173  53.2172 122.9621 0001192  85.0980 275.0148 15.08838707 56967,6917.884,95.438,540.574,538.925,0.0
53173.0,STARLINK-4300,PAYLOAD,2023-07-26 00:46:29,15.08846822,0.0001309,53.217,118.2037,93.2319,266.8822,0.00013422,1.849e-05,0.0,0 STARLINK-4300,1 53173U 22083AT  23207.03228685  .00001849  00000-0  13422-3 0  9999,2 53173  53.2170 118.2037 0001309  93.2319 266.8822 15.08846822 57124,6917.86,95.437,540.63,538.819,0.0
53173.0,STARLINK-4300,PAYLOAD,2023-07-27 00:37:16,15.08849336,0.0001196,53.2161,113.741,91.3546,268.7583,0.00012438,1.693e-05,0.0,0 STARLINK-4300,1 53173U 22083AT  23208.02588252  .00001693  00000-0  12438-3 0  9991,2 53173  53.2161 113.7410 0001196  91.3546 268.7583 15.08849336 57919,6917.852,95.437,540.544,538.889,0.0
53173.0,STARLINK-4300,PAYLOAD,2023-07-27 03:48:02,15.08851871,0.0001226,53.2165,113.1467,88.1911,271.9222,0.00014495,2.02e-05,0.0,0 STARLINK-4300,1 53173U 22083AT  23208.15836036  .00002020  00000-0  14495-3 0  9991,2 53173  53.2165 113.1467 0001226  88.1911 271.9222 15.08851871 57297,6917.844,95.437,540.557,538.861,0.0
53173.0,STARLINK-4300,PAYLOAD,2023-07-27 21:17:16,15.08857388,0.0001159,53.2159,109.8752,80.8009,279.3114,0.00014505,2.022e-05,0.0,0 STARLINK-4300,1 53173U 22083AT  23208.88699303  .00002022  00000-0  14505-3 0  9999,2 53173  53.2159 109.8752 0001159  80.8009 279.3114 15.08857388 57405,6917.827,95.436,540.494,538.89,0.0
53173.0,STARLINK-4300,PAYLOAD,2023-07-28 00:28:04,15.08827029,0.0001199,53.2168,109.2836,95.0991,265.0138,-0.0001683,-2.964e-05,0.0,0 STARLINK-4300,1 53173U 22083AT  23209.01949770 -.00002964  00000-0 -16830-3 0  9991,2 53173  53.2168 109.2836 0001199  95.0991 265.0138 15.08827029 58064,6917.92,95.438,540.614,538.956,0.0
53173.0,STARLINK-4300,PAYLOAD,2023-07-28 03:38:50,15.0882809,0.0001127,53.2164,108.6873,92.3768,267.7353,-0.00014204,-2.547e-05,0.0,0 STARLINK-4300,1 53173U 22083AT  23209.15197773 -.00002547  00000-0 -14204-3 0  9994,2 53173  53.2164 108.6873 0001127  92.3768 267.7353 15.08828090 57445,6917.917,95.438,540.561,539.002,0.0
53173.0,STARLINK-4300,PAYLOAD,2023-07-29 01:54:14,15.08848728,0.0001015,53.2166,104.5255,73.9536,286.1568,0.00015978,2.257e-05,0.0,0 STARLINK-4300,1 53173U 22083AT  23210.07933024  .00002257  00000-0  15978-3 0  9999,2 53173  53.2166 104.5255 0001015  73.9536 286.1568 15.08848728 58220,6917.854,95.437,540.421,539.017,0.0
53173.0,STARLINK-4300,PAYLOAD,2023-07-30 01:45:01,15.08849445,0.0001419,53.2166,100.064,71.248,288.8666,0.00031177,4.679e-05,0.0,0 STARLINK-4300,1 53173U 22083AT  23211.07293508  .00004679  00000-0  31177-3 0  9995,2 53173  53.2166 100.0640 0001419  71.2480 288.8666 15.08849445 58377,6917.852,95.437,540.698,538.735,0.0
53173.0,STARLINK-4300,PAYLOAD,2023-07-31 09:32:44,15.08843475,0.0001399,53.2162,94.1171,78.3523,281.7626,0.00015901,2.244e-05,0.0,0 STARLINK-4300,1 53173U 22083AT  23212.39773262  .00002244  00000-0  15901-3 0  9994,2 53173  53.2162  94.1171 0001399  78.3523 281.7626 15.08843475 58575,6917.87,95.437,540.703,538.767,0.0
53173.0,STARLINK-4300,PAYLOAD,2023-07-31 22:15:49,15.08836984,0.0001272,53.2167,91.7346,101.2696,258.8439,-5.1692e-05,-1.11e-05,0.0,0 STARLINK-4300,1 53173U 22083AT  23212.92765572 -.00001110  00000-0 -51692-4 0  9999,2 53173  53.2167  91.7346 0001272 101.2696 258.8439 15.08836984 58657,6917.89,95.438,540.635,538.875,0.0
53173.0,STARLINK-4300,PAYLOAD,2023-08-02 01:17:23,15.08836794,0.0001269,53.2168,86.6818,90.4853,269.6285,9.1948e-05,1.176e-05,0.0,0 STARLINK-4300,1 53173U 22083AT  23214.05374158  .00001176  00000-0  91948-4 0  9999,2 53173  53.2168  86.6818 0001269  90.4853 269.6285 15.08836794 58822,6917.89,95.438,540.633,538.877,0.0
53173.0,STARLINK-4300,PAYLOAD,2023-08-02 18:46:37,15.08848514,0.0001163,53.2164,83.411,82.0494,278.063,0.00038281,5.811e-05,0.0,0 STARLINK-4300,1 53173U 22083AT  23214.78237735  .00005811  00000-0  38281-3 0  9998,2 53173  53.2164  83.4110 0001163  82.0494 278.0630 15.08848514 58932,6917.854,95.437,540.524,538.915,0.0
53173.0,STARLINK-4300,PAYLOAD,2023-08-02 21:57:23,15.08859088,0.0001252,53.2166,82.8162,87.0504,273.0631,0.00056733,8.757e-05,0.0,0 STARLINK-4300,1 53173U 22083AT  23214.91485445  .00008757  00000-0  56733-3 0  9990,2 53173  53.2166  82.8162 0001252  87.0504 273.0631 15.08859088 58956,6917.822,95.436,540.553,538.821,0.0
53173.0,STARLINK-4300,PAYLOAD,2023-08-03 18:37:24,15.08846037,0.0001142,53.2166,78.9508,102.3146,257.7974,0.00018541,2.665e-05,0.0,0 STARLINK-4300,1 53173U 22083AT  23215.77597782  .00002665  00000-0  18541-3 0  9990,2 53173  53.2166  78.9508 0001142 102.3146 257.7974 15.08846037 59081,6917.862,95.437,540.517,538.937,0.0
